[{"OBJECT_NAME":"TIANQIN 1 (CAS-6)","OBJECT_ID":"2019-093A","EPOCH":"2026-03-09T23:25:50.916864","MEAN_MOTION":14.94890933,"ECCENTRICITY":0.00118256,"INCLINATION":97.7823,"RA_OF_ASC_NODE":153.5687,"ARG_OF_PERICENTER":31.664,"MEAN_ANOMALY":328.5289,"EPHEMERIS_TYPE":0,"CLASSIFICATION_TYPE":"U","NORAD_CAT_ID":44879,"ELEMENT_SET_NO":999,"REV_AT_EPOCH":33722,"BSTAR":0.00035534384,"MEAN_MOTION_DOT":3.822e-5,"MEAN_MOTION_DDOT":0},{"OBJECT_NAME":"ATLAS CENTAUR 2","OBJECT_ID":"1963-047A","EPOCH":"2026-03-09T09:44:46.728096","MEAN_MOTION":14.12066161,"ECCENTRICITY":0.05477336,"INCLINATION":30.3512,"RA_OF_ASC_NODE":197.227,"ARG_OF_PERICENTER":77.7875,"MEAN_ANOMALY":288.3499,"EPHEMERIS_TYPE":0,"CLASSIFICATION_TYPE":"U","NORAD_CAT_ID":694,"ELEMENT_SET_NO":999,"REV_AT_EPOCH":13158,"BSTAR":0.00021795899,"MEAN_MOTION_DOT":1.862e-5,"MEAN_MOTION_DDOT":0}]
